BEIDOU-2 G5             
1 38091U 12008A   26087.91287164  .00000040  00000+0  00000+0 0  9995
2 38091   3.3741  70.1490 0013515 257.9900 245.5221  1.00273247 51563
BEIDOU-2 M3             
1 38250U 12018A   26086.03420255 -.00000035  00000+0  00000+0 0  9990
2 38250  55.8269 307.6446 0020428 279.3138  80.4965  1.86229764 94419
BEIDOU-2 M4             
1 38251U 12018B   26085.96638076 -.00000033  00000+0  00000+0 0  9992
2 38251  55.7282 306.8676 0011786 286.4147  73.4963  1.86229475 94415
SES-5                   
1 38652U 12036A   26087.84836296  .00000014  00000+0  00000+0 0  9998
2 38652   0.0628 304.7555 0002107  56.5266 135.3475  1.00271932 43652
BEIDOU-2 M6             
1 38775U 12050B   26082.99164297 -.00000001  00000+0  00000+0 0  9993
2 38775  56.4716  65.7096 0014341 343.8806  16.0670  1.86230776 91728
GSAT-10                 
1 38779U 12051B   26087.91772500 -.00000184  00000+0  00000+0 0  9999
2 38779   0.0094 190.4150 0005582 250.1030 159.1732  1.00270491 49296
NAVSTAR 67 (USA 239)    
1 38833U 12053A   26086.05261588 -.00000004  00000+0  00000+0 0  9996
2 38833  53.5685 146.9649 0177237  64.9128 296.9786  2.00566077 97797
GSAT0103 (GALILEO-FM3)  
1 38857U 12055A   26086.35355997  .00000039  00000+0  00000+0 0  9992
2 38857  55.7542 103.7894 0005825 290.2864  69.7017  1.70473333 83613
BEIDOU-2 G6             
1 38953U 12059A   26087.91789833 -.00000192  00000+0  00000+0 0  9997
2 38953   4.2187  74.3634 0010514 307.9252 218.5235  1.00272192 49102
LUCH-5B                 
1 38977U 12061A   26087.68406731 -.00000150  00000+0  00000+0 0  9997
2 38977  10.3113  50.6629 0003249 223.4776 141.8589  1.00273320 48806
COSMOS 2485 [GLONASS-M] 
1 39155U 13019A   26087.19744583  .00000045  00000+0  00000+0 0  9998
2 39155  65.3750  76.3211 0025141 237.7712 121.9957  2.13102903100559
NAVSTAR 68 (USA 242)    
1 39166U 13023A   26086.91490065  .00000006  00000+0  00000+0 0  9994
2 39166  54.5687 272.2822 0141941  50.2899 310.9532  2.00563931 94252
IRNSS-1A                
1 39199U 13034A   26087.01364265  .00000079  00000+0  00000+0 0  9996
2 39199  35.5432  65.0278 0016621 190.5814 349.6873  1.00277123 46550
NAVSTAR 69 (USA 248)    
1 39533U 14008A   26087.41311887 -.00000002  00000+0  00000+0 0  9993
2 39533  53.6397 152.6153 0083084 229.1635 130.1722  2.00554546 88061
ASTRA 5B                
1 39617U 14011B   26087.84072572  .00000117  00000+0  00000+0 0  9998
2 39617   0.0879 299.8410 0003643  41.4050 171.1597  1.00269219 43867
COSMOS 2492 [GLONASS-M] 
1 39620U 14012A   26085.27933052 -.00000029  00000+0  00000+0 0  9990
2 39620  65.3447 316.7556 0012642 328.9539  31.0243  2.13103147 93476
IRNSS-1B                
1 39635U 14017A   26087.48456586  .00000084  00000+0  00000+0 0  9998
2 39635  29.0683 241.7822 0021948 181.1529 352.5587  1.00278812 43981
